{"type": "FeatureCollection", "features": [ {"type": "Feature", "properties": {"norad_id": 66727, "name": "FLOCK 4H-24", "group": "last-30-days", "lat": 28.495597650800732, "lon": 63.90777242838065, "alt_km": 513.438366931714, "timestamp": "2025-12-22T08:58:19.046616+00:00", "meta": {"OBJECT_NAME": "FLOCK 4H-24", "OBJECT_ID": "2025-276BP", "EPOCH": "2025-12-21T18:35:35.317248", "MEAN_MOTION": 15.16663463, "ECCENTRICITY": 0.0003584, "INCLINATION": 97.4444, "RA_OF_ASC_NODE": 67.3902, "ARG_OF_PERICENTER": 12.0689, "MEAN_ANOMALY": 348.063, "EPHEMERIS_TYPE": 0, "CLASSIFICATION_TYPE": "U", "NORAD_CAT_ID": 66727, "ELEMENT_SET_NO": 999, "REV_AT_EPOCH": 349, "BSTAR": -0.014797, "MEAN_MOTION_DOT": -0.00278725, "MEAN_MOTION_DDOT": 0}, "tle": {"line1": "1 66727U 25276BP  25355.77471432 -.00278725  00000+0 -14797-1 0  9996", "line2": "2 66727  97.4444  67.3902 0003584  12.0689 348.0630 15.16663463  3496"}}, "geometry": {"type": "Point", "coordinates": [63.90777242838065, 28.495597650800732]}}, {"type": "Feature", "properties": {"norad_id": 66728, "name": "FLOCK 4H-25", "group": "last-30-days", "lat": 71.51439832225003, "lon": -88.99522373795789, "alt_km": 503.30158523481896, "timestamp": "2025-12-22T08:58:19.046626+00:00", "meta": {"OBJECT_NAME": "FLOCK 4H-25", "OBJECT_ID": "2025-276BQ", "EPOCH": "2025-12-22T02:10:31.389312", "MEAN_MOTION": 15.18200313, "ECCENTRICITY": 0.0001599, "INCLINATION": 97.4402, "RA_OF_ASC_NODE": 67.7162, "ARG_OF_PERICENTER": 117.0571, "MEAN_ANOMALY": 243.0827, "EPHEMERIS_TYPE": 0, "CLASSIFICATION_TYPE": "U", "NORAD_CAT_ID": 66728, "ELEMENT_SET_NO": 999, "REV_AT_EPOCH": 282, "BSTAR": 0.00031302, "MEAN_MOTION_DOT": 6.335e-05, "MEAN_MOTION_DDOT": 0}, "tle": {"line1": "1 66728U 25276BQ  25356.09064108  .00006335  00000+0  31302-3 0  9998", "line2": "2 66728  97.4402  67.7162 0001599 117.0571 243.0827 15.18200313  2824"}}, "geometry": {"type": "Point", "coordinates": [-88.99522373795789, 71.51439832225003]}}, {"type": "Feature", "properties": {"norad_id": 66729, "name": "FLOCK 4H-26", "group": "last-30-days", "lat": 14.380541860129172, "lon": 66.034777119194, "alt_km": 516.415260328663, "timestamp": "2025-12-22T08:58:19.046636+00:00", "meta": {"OBJECT_NAME": "FLOCK 4H-26", "OBJECT_ID": "2025-276BR", "EPOCH": "2025-12-22T04:09:33.907104", "MEAN_MOTION": 15.17143649, "ECCENTRICITY": 0.0003677, "INCLINATION": 97.4397, "RA_OF_ASC_NODE": 67.7579, "ARG_OF_PERICENTER": 264.0504, "MEAN_ANOMALY": 96.031, "EPHEMERIS_TYPE": 0, "CLASSIFICATION_TYPE": "U", "NORAD_CAT_ID": 66729, "ELEMENT_SET_NO": 999, "REV_AT_EPOCH": 355, "BSTAR": 0.00052771, "MEAN_MOTION_DOT": 0.00010412, "MEAN_MOTION_DDOT": 0}, "tle": {"line1": "1 66729U 25276BR  25356.17330911  .00010412  00000+0  52771-3 0  9990", "line2": "2 66729  97.4397  67.7579 0003677 264.0504  96.0310 15.17143649  3559"}}, "geometry": {"type": "Point", "coordinates": [66.034777119194, 14.380541860129172]}}, {"type": "Feature", "properties": {"norad_id": 66730, "name": "FLOCK 4H-27", "group": "last-30-days", "lat": 80.74104299578138, "lon": -58.75827856143287, "alt_km": 503.6201519870201, "timestamp": "2025-12-22T08:58:19.046647+00:00", "meta": {"OBJECT_NAME": "FLOCK 4H-27", "OBJECT_ID": "2025-276BS", "EPOCH": "2025-12-22T03:48:24.882912", "MEAN_MOTION": 15.18069778, "ECCENTRICITY": 0.000113, "INCLINATION": 97.4377, "RA_OF_ASC_NODE": 67.7706, "ARG_OF_PERICENTER": 131.4071, "MEAN_ANOMALY": 228.726, "EPHEMERIS_TYPE": 0, "CLASSIFICATION_TYPE": "U", "NORAD_CAT_ID": 66730, "ELEMENT_SET_NO": 999, "REV_AT_EPOCH": 355, "BSTAR": 0.00044829, "MEAN_MOTION_DOT": 9.071e-05, "MEAN_MOTION_DDOT": 0}, "tle": {"line1": "1 66730U 25276BS  25356.15862133  .00009071  00000+0  44829-3 0  9990", "line2": "2 66730  97.4377  67.7706 0001130 131.4071 228.7260 15.18069778  3558"}}, "geometry": {"type": "Point", "coordinates": [-58.75827856143287, 80.74104299578138]}}, {"type": "Feature", "properties": {"norad_id": 66731, "name": "FLOCK 4H-28", "group": "last-30-days", "lat": 16.10122696210189, "lon": 65.79102109405709, "alt_km": 516.0467734648964, "timestamp": "2025-12-22T08:58:19.046660+00:00", "meta": {"OBJECT_NAME": "FLOCK 4H-28", "OBJECT_ID": "2025-276BT", "EPOCH": "2025-12-22T04:09:06.310944", "MEAN_MOTION": 15.17131722, "ECCENTRICITY": 0.0003244, "INCLINATION": 97.4384, "RA_OF_ASC_NODE": 67.7552, "ARG_OF_PERICENTER": 266.6593, "MEAN_ANOMALY": 93.4269, "EPHEMERIS_TYPE": 0, "CLASSIFICATION_TYPE": "U", "NORAD_CAT_ID": 66731, "ELEMENT_SET_NO": 999, "REV_AT_EPOCH": 355, "BSTAR": 0.00050109, "MEAN_MOTION_DOT": 9.879e-05, "MEAN_MOTION_DDOT": 0}, "tle": {"line1": "1 66731U 25276BT  25356.17298971  .00009879  00000+0  50109-3 0  9990", "line2": "2 66731  97.4384  67.7552 0003244 266.6593  93.4269 15.17131722  3558"}}, "geometry": {"type": "Point", "coordinates": [65.79102109405709, 16.10122696210189]}}, {"type": "Feature", "properties": {"norad_id": 66732, "name": "FLOCK 4H-29", "group": "last-30-days", "lat": 28.185538092898636, "lon": 63.94019171652052, "alt_km": 514.9373552809275, "timestamp": "2025-12-22T08:58:19.046670+00:00", "meta": {"OBJECT_NAME": "FLOCK 4H-29", "OBJECT_ID": "2025-276BU", "EPOCH": "2025-12-22T02:30:57.717216", "MEAN_MOTION": 15.17334827, "ECCENTRICITY": 0.0003481, "INCLINATION": 97.4376, "RA_OF_ASC_NODE": 67.6903, "ARG_OF_PERICENTER": 229.8115, "MEAN_ANOMALY": 130.2814, "EPHEMERIS_TYPE": 0, "CLASSIFICATION_TYPE": "U", "NORAD_CAT_ID": 66732, "ELEMENT_SET_NO": 999, "REV_AT_EPOCH": 354, "BSTAR": 0.0016976, "MEAN_MOTION_DOT": 0.00033934, "MEAN_MOTION_DDOT": 0}, "tle": {"line1": "1 66732U 25276BU  25356.10483469  .00033934  00000+0  16976-2 0  9994", "line2": "2 66732  97.4376  67.6903 0003481 229.8115 130.2814 15.17334827  3549"}}, "geometry": {"type": "Point", "coordinates": [63.94019171652052, 28.185538092898636]}}, {"type": "Feature", "properties": {"norad_id": 66733, "name": "FLOCK 4H-30", "group": "last-30-days", "lat": 21.845918639069012, "lon": 64.96835003536731, "alt_km": 514.9377538409472, "timestamp": "2025-12-22T08:58:19.046685+00:00", "meta": {"OBJECT_NAME": "FLOCK 4H-30", "OBJECT_ID": "2025-276BV", "EPOCH": "2025-12-22T04:00:01.998720", "MEAN_MOTION": 15.17216162, "ECCENTRICITY": 0.0003219, "INCLINATION": 97.4434, "RA_OF_ASC_NODE": 67.7693, "ARG_OF_PERICENTER": 269.5696, "MEAN_ANOMALY": 61.8569, "EPHEMERIS_TYPE": 0, "CLASSIFICATION_TYPE": "U", "NORAD_CAT_ID": 66733, "ELEMENT_SET_NO": 999, "REV_AT_EPOCH": 297, "BSTAR": 0.0024622, "MEAN_MOTION_DOT": 0.00049182, "MEAN_MOTION_DDOT": 0}, "tle": {"line1": "1 66733U 25276BV  25356.16668980  .00049182  00000+0  24622-2 0  9993", "line2": "2 66733  97.4434  67.7693 0003219 269.5696  61.8569 15.17216162  2979"}}, "geometry": {"type": "Point", "coordinates": [64.96835003536731, 21.845918639069012]}}, {"type": "Feature", "properties": {"norad_id": 66734, "name": "FLOCK 4H-31", "group": "last-30-days", "lat": 22.608600471397224, "lon": 64.83398526718686, "alt_km": 514.0922842009959, "timestamp": "2025-12-22T08:58:19.046696+00:00", "meta": {"OBJECT_NAME": "FLOCK 4H-31", "OBJECT_ID": "2025-276BW", "EPOCH": "2025-12-22T02:32:24.857664", "MEAN_MOTION": 15.17192297, "ECCENTRICITY": 0.0004294, "INCLINATION": 97.4385, "RA_OF_ASC_NODE": 67.6898, "ARG_OF_PERICENTER": 293.1147, "MEAN_ANOMALY": 66.9633, "EPHEMERIS_TYPE": 0, "CLASSIFICATION_TYPE": "U", "NORAD_CAT_ID": 66734, "ELEMENT_SET_NO": 999, "REV_AT_EPOCH": 354, "BSTAR": 0.00043745, "MEAN_MOTION_DOT": 8.63e-05, "MEAN_MOTION_DDOT": 0}, "tle": {"line1": "1 66734U 25276BW  25356.10584326  .00008630  00000+0  43745-3 0  9990", "line2": "2 66734  97.4385  67.6898 0004294 293.1147  66.9633 15.17192297  3543"}}, "geometry": {"type": "Point", "coordinates": [64.83398526718686, 22.608600471397224]}}, {"type": "Feature", "properties": {"norad_id": 66735, "name": "FLOCK 4H-32", "group": "last-30-days", "lat": 20.29072433887306, "lon": 65.19791415178754, "alt_km": 515.4901897931895, "timestamp": "2025-12-22T08:58:19.046706+00:00", "meta": {"OBJECT_NAME": "FLOCK 4H-32", "OBJECT_ID": "2025-276BX", "EPOCH": "2025-12-22T02:33:02.097792", "MEAN_MOTION": 15.1721546, "ECCENTRICITY": 0.0003518, "INCLINATION": 97.4431, "RA_OF_ASC_NODE": 67.7056, "ARG_OF_PERICENTER": 263.5095, "MEAN_ANOMALY": 96.5738, "EPHEMERIS_TYPE": 0, "CLASSIFICATION_TYPE": "U", "NORAD_CAT_ID": 66735, "ELEMENT_SET_NO": 999, "REV_AT_EPOCH": 354, "BSTAR": 0.00051703, "MEAN_MOTION_DOT": 0.00010221, "MEAN_MOTION_DDOT": 0}, "tle": {"line1": "1 66735U 25276BX  25356.10627428  .00010221  00000+0  51703-3 0  9994", "line2": "2 66735  97.4431  67.7056 0003518 263.5095  96.5738 15.17215460  3547"}}, "geometry": {"type": "Point", "coordinates": [65.19791415178754, 20.29072433887306]}}, {"type": "Feature", "properties": {"norad_id": 66736, "name": "FLOCK 4H-33", "group": "last-30-days", "lat": 69.21508634779566, "lon": -91.84901768585968, "alt_km": 503.2555753755032, "timestamp": "2025-12-22T08:58:19.046716+00:00", "meta": {"OBJECT_NAME": "FLOCK 4H-33", "OBJECT_ID": "2025-276BY", "EPOCH": "2025-12-22T02:09:52.816032", "MEAN_MOTION": 15.18273812, "ECCENTRICITY": 0.0002573, "INCLINATION": 97.4427, "RA_OF_ASC_NODE": 67.726, "ARG_OF_PERICENTER": 162.7594, "MEAN_ANOMALY": 197.3728, "EPHEMERIS_TYPE": 0, "CLASSIFICATION_TYPE": "U", "NORAD_CAT_ID": 66736, "ELEMENT_SET_NO": 999, "REV_AT_EPOCH": 354, "BSTAR": 0.00062404, "MEAN_MOTION_DOT": 0.00012734, "MEAN_MOTION_DDOT": 0}, "tle": {"line1": "1 66736U 25276BY  25356.09019463  .00012734  00000+0  62404-3 0  9998", "line2": "2 66736  97.4427  67.7260 0002573 162.7594 197.3728 15.18273812  3549"}}, "geometry": {"type": "Point", "coordinates": [-91.84901768585968, 69.21508634779566]}}]}